#aV2014  5  4  0  0  0.00000000     288 DD+AD WGS84 FIT  NGA
## 1791      0.00000000   300.00000000 56781 0.0000000000000
+   32     1  2  3  4  5  6  7  8  9 10 11 12 13 14 15 16 17
+         18 19 20 21 22 23 24 25 26 27 28 29 30 31 32  0  0
+          0  0  0  0  0  0  0  0  0  0  0  0  0  0  0  0  0
+          0  0  0  0  0  0  0  0  0  0  0  0  0  0  0  0  0
+          0  0  0  0  0  0  0  0  0  0  0  0  0  0  0  0  0
++         2  2  2  2  2  2  2  2  2  2  2  2  2  2  2  2  2
++         2  2  2  2  2  2  2  2  2  2  2  2  2  2  2  0  0
++         0  0  0  0  0  0  0  0  0  0  0  0  0  0  0  0  0
++         0  0  0  0  0  0  0  0  0  0  0  0  0  0  0  0  0
++         0  0  0  0  0  0  0  0  0  0  0  0  0  0  0  0  0
%c cc cc ccc ccc cccc cccc cccc cccc ccccc ccccc ccccc ccccc
%c cc cc ccc ccc cccc cccc cccc cccc ccccc ccccc ccccc ccccc
%f  0.0000000  0.000000000  0.00000000000  0.000000000000000
%f  0.0000000  0.000000000  0.00000000000  0.000000000000000
%i    0    0    0    0      0      0      0      0         0
%i    0    0    0    0      0      0      0      0         0
/*      NGA, ST. LOUIS,MO.                                  
/*   EPHEMERIS COMPUTED FROM  1 DAYS OF DATA                
/*   EPOCHA SMOOTHER                                       
/* CCCCCCCCCCCCCCCCCCCCCCCCCCCCCCCCCCCCCCCCCCCCCCCCCCCCCCCCC
*  2014  5  4 12  0  0.00000000
P  1 -13400.745881  19536.411644  11838.677256     11.032414                    
V  1   1247.740009 -15281.730135  26697.882424      0.013596                    
P  2  14998.553781   4168.749555 -21237.798664    493.390936                    
V  2  -5808.072795  27113.106515    714.515465      0.021707                    
P  3 -22161.734998  -3109.954233  13878.273070    360.283009                    
V  3 -13618.613517 -12877.727877 -23551.550470      0.050071                    
P  4   9086.498109  17850.561902 -17637.254268      6.860897                    
V  4  -7060.430483  20892.051272  18054.920713      0.000167                    
P  5  25311.052431  -1315.211338  -8249.523590   -375.004325                    
V  5  -9160.216887   5692.572918 -28978.410660      0.023881                    
P  6 -16558.674432  -8699.836902 -19109.055792   -158.620364                    
V  6  22678.551886  -7229.789222 -16293.419101     -0.019934                    
P  7  -5773.830659  25689.579001   1627.312475    342.502862                    
V  7  -3125.742993   1229.507502 -32164.438123      0.042376                    
P  8   -837.304385  23578.461110  11700.936439     13.337053                    
V  8  -6951.319865  13188.807334 -28019.553733      0.002972                    
P  9   3185.935388  22664.378918  12779.794823    325.035972                    
V  9  -6087.967740  16149.739546 -26225.781135      0.029492                    
P 10  13779.382119  11351.505137 -20123.773504   -124.152445                    
V 10 -23594.048239   7584.805901 -11658.152821     -0.014854                    
P 11 -13532.240559  13401.511755  17951.957356   -486.097406                    
V 11  -4471.835942 -23871.023291  14282.431743     -0.031851                    
P 12  22369.698867 -11339.391000  -8452.644774    202.742046                    
V 12  10838.391216   -670.122846  30029.030339      0.024534                    
P 13  -1822.377108  18109.011694 -19418.927734      3.215543                    
V 13 -16605.994136 -17884.471404 -15382.116498     -0.038153                    
P 14 -13367.415277 -22013.563336   7023.315271    175.923478                    
V 14   7398.284083   4889.715577  30201.692370     -0.033867                    
P 15  17663.159215  -3526.246496  19551.200852   -177.556561                    
V 15  17783.121013  17544.313401 -12575.389871     -0.021556                    
P 16 -25423.589797    208.645552  -8353.639734   -220.132152                    
V 16   9807.894023  -3804.131495 -29760.916501      0.018508                    
P 17  14577.163773  21492.288170   6369.924726    -90.384898                    
V 17  -6950.205436  -3995.763493  30411.970449     -0.031464                    
P 18   4597.224267 -17167.180133  20099.421288    317.178219                    
V 18  24134.754772  -5755.171475 -11014.336694      0.022945                    
P 19 -18194.892638   -532.692618  19360.087013   -454.873839                    
V 19 -15419.963594 -19344.774743 -14478.012919     -0.022458                    
P 20 -20308.688866  14564.914345  -9086.169468    186.042136                    
V 20 -11879.625497    541.610339  28061.656989      0.038046                    
P 21   2154.166032 -25824.904990   5192.363881   -359.109740                    
V 21   5193.506631  -4859.463456 -30457.965234     -0.022288                    
P 22  -9600.022230 -13617.010536  20918.428107    231.626118                    
V 22  24912.169283  -8169.788001   6012.609724      0.029027                    
P 23 -12411.871261   9266.988002 -21493.976785    -17.724132                    
V 23 -19664.856095 -19288.735303   2613.644276     -0.031381                    
P 24  14861.931507 -15507.157642  15541.387058    -27.819961                    
V 24  -2427.771544  19787.337734  22124.709082     -0.006600                    
P 25  12085.986705 -15906.270638 -17502.988693     23.214879                    
V 25  21615.455792  -4847.679330  19539.019661      0.007263                    
P 26  20451.068345   9969.317133  13285.844516     89.191219                    
V 26  10217.089691  14735.992138 -25245.983140     -0.116024                    
P 27 -21900.465383  -9972.815913  11301.259446    -17.797084                    
V 27  -8799.255214 -11545.853830 -27174.274206      0.014451                    
P 28   4796.173160  14193.477765  22541.584232    352.190881                    
V 28 -26417.716620   5960.775971   1790.773541      0.029633                    
P 29   2186.483794 -17512.769503 -19823.609111    530.121833                    
V 29  18083.918530  17612.261245 -13488.018401      0.027986                    
P 30     74.480586  24209.298301  10886.705245     -6.885247                    
V 30  -6720.292329  12369.555577 -27461.565739     -0.043704                    
P 31 -10015.966741 -14095.885930 -19911.781834    334.251368                    
V 31   7920.411311 -24445.550188  13519.374432     -0.000244                    
P 32 -25873.356562   4367.438278   1170.224068   -436.128210                    
V 32    681.990620  -3900.543360  31779.733155      0.080053                    
EOF
